[{"OBJECT_NAME":"STARLINK-3805","OBJECT_ID":"2022-045AY","EPOCH":"2026-03-09T15:13:56.098848","MEAN_MOTION":15.08844916,"ECCENTRICITY":0.0001258,"INCLINATION":53.2172,"RA_OF_ASC_NODE":189.5906,"ARG_OF_PERICENTER":109.0464,"MEAN_ANOMALY":251.0665,"EPHEMERIS_TYPE":0,"CLASSIFICATION_TYPE":"U","NORAD_CAT_ID":52377,"ELEMENT_SET_NO":999,"REV_AT_EPOCH":21590,"BSTAR":-9.6292e-5,"MEAN_MOTION_DOT":-1.82e-5,"MEAN_MOTION_DDOT":0},{"OBJECT_NAME":"FENGYUN 1C DEB","OBJECT_ID":"1999-025EMJ","EPOCH":"2026-03-09T03:39:09.279936","MEAN_MOTION":15.01174269,"ECCENTRICITY":0.00472088,"INCLINATION":98.7318,"RA_OF_ASC_NODE":38.98,"ARG_OF_PERICENTER":180.721,"MEAN_ANOMALY":242.109,"EPHEMERIS_TYPE":0,"CLASSIFICATION_TYPE":"U","NORAD_CAT_ID":37717,"ELEMENT_SET_NO":999,"REV_AT_EPOCH":90691,"BSTAR":0.0034859906,"MEAN_MOTION_DOT":0.00045969,"MEAN_MOTION_DDOT":0}]
